{"type": "FeatureCollection", "features": [ {"type": "Feature", "properties": {"norad_id": 30500, "name": "FENGYUN 1C DEB", "group": "fengyun-1c-debris", "lat": 25.067538329739058, "lon": -101.78628854632758, "alt_km": 765.1010222942296, "timestamp": "2025-12-08T13:49:32.069503+00:00", "meta": {"OBJECT_NAME": "FENGYUN 1C DEB", "OBJECT_ID": "1999-025AHN", "EPOCH": "2025-12-07T12:25:41.904768", "MEAN_MOTION": 14.25099595, "ECCENTRICITY": 0.00654132, "INCLINATION": 99.0728, "RA_OF_ASC_NODE": 72.8338, "ARG_OF_PERICENTER": 131.1513, "MEAN_ANOMALY": 356.9607, "EPHEMERIS_TYPE": 0, "CLASSIFICATION_TYPE": "U", "NORAD_CAT_ID": 30500, "ELEMENT_SET_NO": 999, "REV_AT_EPOCH": 96607, "BSTAR": 0.0042895553, "MEAN_MOTION_DOT": 0.00010254, "MEAN_MOTION_DDOT": 0}, "tle": {"line1": "1 30500U 99025AHN 25341.51784612  .00010254  00000+0  42896-2 0  9994", "line2": "2 30500  99.0728  72.8338 0065413 131.1513 356.9607 14.25099595966073"}}, "geometry": {"type": "Point", "coordinates": [-101.78628854632758, 25.067538329739058]}}, {"type": "Feature", "properties": {"norad_id": 30501, "name": "FENGYUN 1C DEB", "group": "fengyun-1c-debris", "lat": 77.54730992703153, "lon": -160.34032357597957, "alt_km": 813.1576084366579, "timestamp": "2025-12-08T13:49:32.069514+00:00", "meta": {"OBJECT_NAME": "FENGYUN 1C DEB", "OBJECT_ID": "1999-025AHP", "EPOCH": "2025-12-07T22:20:10.156704", "MEAN_MOTION": 14.25284013, "ECCENTRICITY": 0.0040563, "INCLINATION": 99.0837, "RA_OF_ASC_NODE": 332.5666, "ARG_OF_PERICENTER": 216.9803, "MEAN_ANOMALY": 172.2907, "EPHEMERIS_TYPE": 0, "CLASSIFICATION_TYPE": "U", "NORAD_CAT_ID": 30501, "ELEMENT_SET_NO": 999, "REV_AT_EPOCH": 96851, "BSTAR": 0.002269803, "MEAN_MOTION_DOT": 5.344e-05, "MEAN_MOTION_DDOT": 0}, "tle": {"line1": "1 30501U 99025AHP 25341.93067311  .00005344  00000+0  22698-2 0  9993", "line2": "2 30501  99.0837 332.5666 0040563 216.9803 172.2907 14.25284013968512"}}, "geometry": {"type": "Point", "coordinates": [-160.34032357597957, 77.54730992703153]}}, {"type": "Feature", "properties": {"norad_id": 30503, "name": "FENGYUN 1C DEB", "group": "fengyun-1c-debris", "lat": 80.47809960860582, "lon": 81.13350329598399, "alt_km": 837.0399538091378, "timestamp": "2025-12-08T13:49:32.069524+00:00", "meta": {"OBJECT_NAME": "FENGYUN 1C DEB", "OBJECT_ID": "1999-025AHR", "EPOCH": "2025-12-08T05:15:00.999648", "MEAN_MOTION": 14.1611784, "ECCENTRICITY": 0.00083473, "INCLINATION": 99.2048, "RA_OF_ASC_NODE": 185.5874, "ARG_OF_PERICENTER": 280.4943, "MEAN_ANOMALY": 151.3772, "EPHEMERIS_TYPE": 0, "CLASSIFICATION_TYPE": "U", "NORAD_CAT_ID": 30503, "ELEMENT_SET_NO": 999, "REV_AT_EPOCH": 97282, "BSTAR": 0.00049863759, "MEAN_MOTION_DOT": 9.38e-06, "MEAN_MOTION_DDOT": 0}, "tle": {"line1": "1 30503U 99025AHR 25342.21876157  .00000938  00000+0  49864-3 0  9992", "line2": "2 30503  99.2048 185.5874 0008347 280.4943 151.3772 14.16117840972822"}}, "geometry": {"type": "Point", "coordinates": [81.13350329598399, 80.47809960860582]}}, {"type": "Feature", "properties": {"norad_id": 30504, "name": "FENGYUN 1C DEB", "group": "fengyun-1c-debris", "lat": -58.925383340338456, "lon": -166.62259102270423, "alt_km": 751.8873975104743, "timestamp": "2025-12-08T13:49:32.069534+00:00", "meta": {"OBJECT_NAME": "FENGYUN 1C DEB", "OBJECT_ID": "1999-025AHS", "EPOCH": "2025-12-06T15:40:27.863328", "MEAN_MOTION": 14.2046933, "ECCENTRICITY": 0.01118882, "INCLINATION": 99.0261, "RA_OF_ASC_NODE": 26.7084, "ARG_OF_PERICENTER": 233.776, "MEAN_ANOMALY": 258.057, "EPHEMERIS_TYPE": 0, "CLASSIFICATION_TYPE": "U", "NORAD_CAT_ID": 30504, "ELEMENT_SET_NO": 999, "REV_AT_EPOCH": 97307, "BSTAR": 0.00091359073, "MEAN_MOTION_DOT": 2.041e-05, "MEAN_MOTION_DDOT": 0}, "tle": {"line1": "1 30504U 99025AHS 25340.65310027  .00002041  00000+0  91359-3 0  9991", "line2": "2 30504  99.0261  26.7084 0111888 233.7760 258.0570 14.20469330973078"}}, "geometry": {"type": "Point", "coordinates": [-166.62259102270423, -58.925383340338456]}}, {"type": "Feature", "properties": {"norad_id": 30505, "name": "FENGYUN 1C DEB", "group": "fengyun-1c-debris", "lat": 62.02187146949961, "lon": -100.60571278778121, "alt_km": 845.8977258699988, "timestamp": "2025-12-08T13:49:32.069545+00:00", "meta": {"OBJECT_NAME": "FENGYUN 1C DEB", "OBJECT_ID": "1999-025AHT", "EPOCH": "2025-12-08T05:05:42.668160", "MEAN_MOTION": 14.21984267, "ECCENTRICITY": 0.00632424, "INCLINATION": 98.9262, "RA_OF_ASC_NODE": 61.8174, "ARG_OF_PERICENTER": 254.9551, "MEAN_ANOMALY": 160.9843, "EPHEMERIS_TYPE": 0, "CLASSIFICATION_TYPE": "U", "NORAD_CAT_ID": 30505, "ELEMENT_SET_NO": 999, "REV_AT_EPOCH": 96859, "BSTAR": 0.0024550743, "MEAN_MOTION_DOT": 5.492e-05, "MEAN_MOTION_DDOT": 0}, "tle": {"line1": "1 30505U 99025AHT 25342.21229940  .00005492  00000+0  24551-2 0  9991", "line2": "2 30505  98.9262  61.8174 0063242 254.9551 160.9843 14.21984267968598"}}, "geometry": {"type": "Point", "coordinates": [-100.60571278778121, 62.02187146949961]}}, {"type": "Feature", "properties": {"norad_id": 30506, "name": "FENGYUN 1C DEB", "group": "fengyun-1c-debris", "lat": -14.270303776618515, "lon": -9.98297661072301, "alt_km": 819.0148627680701, "timestamp": "2025-12-08T13:49:32.069555+00:00", "meta": {"OBJECT_NAME": "FENGYUN 1C DEB", "OBJECT_ID": "1999-025AHU", "EPOCH": "2025-12-08T05:58:47.009280", "MEAN_MOTION": 14.08643404, "ECCENTRICITY": 0.00705071, "INCLINATION": 98.7569, "RA_OF_ASC_NODE": 347.4528, "ARG_OF_PERICENTER": 0.6815, "MEAN_ANOMALY": 128.3101, "EPHEMERIS_TYPE": 0, "CLASSIFICATION_TYPE": "U", "NORAD_CAT_ID": 30506, "ELEMENT_SET_NO": 999, "REV_AT_EPOCH": 96758, "BSTAR": 0.00062188366, "MEAN_MOTION_DOT": 1.052e-05, "MEAN_MOTION_DDOT": 0}, "tle": {"line1": "1 30506U 99025AHU 25342.24915520  .00001052  00000+0  62188-3 0  9998", "line2": "2 30506  98.7569 347.4528 0070507   0.6815 128.3101 14.08643404967587"}}, "geometry": {"type": "Point", "coordinates": [-9.98297661072301, -14.270303776618515]}}, {"type": "Feature", "properties": {"norad_id": 30507, "name": "FENGYUN 1C DEB", "group": "fengyun-1c-debris", "lat": 33.52222891257869, "lon": 40.99389456454793, "alt_km": 929.5062199085851, "timestamp": "2025-12-08T13:49:32.069565+00:00", "meta": {"OBJECT_NAME": "FENGYUN 1C DEB", "OBJECT_ID": "1999-025AHV", "EPOCH": "2025-12-08T03:36:21.792672", "MEAN_MOTION": 14.13144058, "ECCENTRICITY": 0.01283559, "INCLINATION": 99.0131, "RA_OF_ASC_NODE": 46.6005, "ARG_OF_PERICENTER": 189.1429, "MEAN_ANOMALY": 200.5522, "EPHEMERIS_TYPE": 0, "CLASSIFICATION_TYPE": "U", "NORAD_CAT_ID": 30507, "ELEMENT_SET_NO": 999, "REV_AT_EPOCH": 96433, "BSTAR": 0.0015827711, "MEAN_MOTION_DOT": 3.156e-05, "MEAN_MOTION_DDOT": 0}, "tle": {"line1": "1 30507U 99025AHV 25342.15025223  .00003156  00000+0  15828-2 0  9996", "line2": "2 30507  99.0131  46.6005 0128355 189.1429 200.5522 14.13144058964331"}}, "geometry": {"type": "Point", "coordinates": [40.99389456454793, 33.52222891257869]}}, {"type": "Feature", "properties": {"norad_id": 30509, "name": "FENGYUN 1C DEB", "group": "fengyun-1c-debris", "lat": -68.32537250409953, "lon": -123.31734473300162, "alt_km": 934.7478707441833, "timestamp": "2025-12-08T13:49:32.069575+00:00", "meta": {"OBJECT_NAME": "FENGYUN 1C DEB", "OBJECT_ID": "1999-025AHX", "EPOCH": "2025-12-08T04:30:07.591968", "MEAN_MOTION": 14.07602496, "ECCENTRICITY": 0.01012086, "INCLINATION": 98.4643, "RA_OF_ASC_NODE": 214.3145, "ARG_OF_PERICENTER": 76.3026, "MEAN_ANOMALY": 46.9753, "EPHEMERIS_TYPE": 0, "CLASSIFICATION_TYPE": "U", "NORAD_CAT_ID": 30509, "ELEMENT_SET_NO": 999, "REV_AT_EPOCH": 95658, "BSTAR": 0.0025348653, "MEAN_MOTION_DOT": 4.446e-05, "MEAN_MOTION_DDOT": 0}, "tle": {"line1": "1 30509U 99025AHX 25342.18758787  .00004446  00000+0  25349-2 0  9991", "line2": "2 30509  98.4643 214.3145 0101208  76.3026  46.9753 14.07602496956585"}}, "geometry": {"type": "Point", "coordinates": [-123.31734473300162, -68.32537250409953]}}, {"type": "Feature", "properties": {"norad_id": 30510, "name": "FENGYUN 1C DEB", "group": "fengyun-1c-debris", "lat": -78.75960886735612, "lon": 119.43440019261719, "alt_km": 852.3222317057671, "timestamp": "2025-12-08T13:49:32.069586+00:00", "meta": {"OBJECT_NAME": "FENGYUN 1C DEB", "OBJECT_ID": "1999-025AHY", "EPOCH": "2025-12-07T23:16:14.331648", "MEAN_MOTION": 14.12814754, "ECCENTRICITY": 0.00786577, "INCLINATION": 99.2448, "RA_OF_ASC_NODE": 353.8456, "ARG_OF_PERICENTER": 179.5821, "MEAN_ANOMALY": 240.273, "EPHEMERIS_TYPE": 0, "CLASSIFICATION_TYPE": "U", "NORAD_CAT_ID": 30510, "ELEMENT_SET_NO": 999, "REV_AT_EPOCH": 96507, "BSTAR": 0.0018914626, "MEAN_MOTION_DOT": 3.574e-05, "MEAN_MOTION_DDOT": 0}, "tle": {"line1": "1 30510U 99025AHY 25341.96961032  .00003574  00000+0  18915-2 0  9999", "line2": "2 30510  99.2448 353.8456 0078657 179.5821 240.2730 14.12814754965079"}}, "geometry": {"type": "Point", "coordinates": [119.43440019261719, -78.75960886735612]}}, {"type": "Feature", "properties": {"norad_id": 30514, "name": "FENGYUN 1C DEB", "group": "fengyun-1c-debris", "lat": 80.87277610307785, "lon": -60.88560650391018, "alt_km": 652.152952991768, "timestamp": "2025-12-08T13:49:32.069596+00:00", "meta": {"OBJECT_NAME": "FENGYUN 1C DEB", "OBJECT_ID": "1999-025AJC", "EPOCH": "2025-12-08T00:02:09.656160", "MEAN_MOTION": 14.34332167, "ECCENTRICITY": 0.01745795, "INCLINATION": 98.4133, "RA_OF_ASC_NODE": 5.6557, "ARG_OF_PERICENTER": 108.1383, "MEAN_ANOMALY": 253.89, "EPHEMERIS_TYPE": 0, "CLASSIFICATION_TYPE": "U", "NORAD_CAT_ID": 30514, "ELEMENT_SET_NO": 999, "REV_AT_EPOCH": 98157, "BSTAR": 0.0006857112, "MEAN_MOTION_DOT": 2.242e-05, "MEAN_MOTION_DDOT": 0}, "tle": {"line1": "1 30514U 99025AJC 25342.00150065  .00002242  00000+0  68571-3 0  9990", "line2": "2 30514  98.4133   5.6557 0174579 108.1383 253.8900 14.34332167981579"}}, "geometry": {"type": "Point", "coordinates": [-60.88560650391018, 80.87277610307785]}}]}